[{"OBJECT_NAME":"VIGORIDE-3","OBJECT_ID":"2022-057AE","EPOCH":"2026-03-09T22:06:57.048768","MEAN_MOTION":15.2610122,"ECCENTRICITY":0.00097778,"INCLINATION":97.6431,"RA_OF_ASC_NODE":206.4459,"ARG_OF_PERICENTER":111.2279,"MEAN_ANOMALY":249.0004,"EPHEMERIS_TYPE":0,"CLASSIFICATION_TYPE":"U","NORAD_CAT_ID":52760,"ELEMENT_SET_NO":999,"REV_AT_EPOCH":21001,"BSTAR":0.00033325795,"MEAN_MOTION_DOT":8.532e-5,"MEAN_MOTION_DDOT":0},{"OBJECT_NAME":"STARLINK-32460","OBJECT_ID":"2024-207C","EPOCH":"2026-03-09T00:20:23.620128","MEAN_MOTION":15.27590764,"ECCENTRICITY":0.00017001,"INCLINATION":43.0002,"RA_OF_ASC_NODE":285.1359,"ARG_OF_PERICENTER":273.0231,"MEAN_ANOMALY":87.0426,"EPHEMERIS_TYPE":0,"CLASSIFICATION_TYPE":"U","NORAD_CAT_ID":61914,"ELEMENT_SET_NO":999,"REV_AT_EPOCH":7462,"BSTAR":0.0010471334,"MEAN_MOTION_DOT":0.00028675,"MEAN_MOTION_DDOT":0}]
